STARLINK-3598           
1 51897U 22022AX  26037.59658806 -.00001256  00000+0 -60844-4 0  9994
2 51897  53.2175 138.7031 0001365  78.0537 282.0608 15.08828999218559
STARLINK-3597           
1 51898U 22022AY  26038.25531410  .00001999  00000+0  14367-3 0  9990
2 51898  53.2159 135.7450 0001212  83.0442 277.0688 15.08835921218708
STARLINK-3700           
1 51956U 22025A   26038.29969031  .00000974  00000+0  46089-4 0  9995
2 51956  53.1596 154.4224 0001465  68.5490 291.5666 15.29356519216524
STARLINK-3694           
1 51957U 22025B   26037.61946994 -.00000638  00000+0 -23967-4 0  9993
2 51957  53.0561 175.3509 0001292  95.9259 264.1878 15.06389605216167
STARLINK-3692           
1 51958U 22025C   26037.60597571  .00000750  00000+0  37441-4 0  9991
2 51958  53.1624 157.9215 0000955  79.8549 280.2559 15.30193795216410
STARLINK-3704           
1 51959U 22025D   26038.02124953 -.00001821  00000+0 -10340-3 0  9999
2 51959  53.0560 173.5210 0002619  50.8472 309.2749 15.06376079216224
STARLINK-3691           
1 51960U 22025E   26037.68212914  .00000264  00000+0  36650-4 0  9998
2 51960  53.0561 175.0486 0001272  93.7373 266.3762 15.06387690216172
STARLINK-3697           
1 51962U 22025G   26038.31341018 -.00002122  00000+0 -12355-3 0  9991
2 51962  53.0555 162.7900 0001854 110.9657 249.1531 15.06407177216406
STARLINK-3675           
1 51963U 22025H   26037.60283009  .00000925  00000+0  43376-4 0  9993
2 51963  53.1631 157.9519 0001439  82.3366 277.7798 15.30193144216419
STARLINK-3690           
1 51964U 22025J   26037.62883493 -.00005451  00000+0 -34751-3 0  9996
2 51964  53.0550 166.4513 0000982  99.0808 261.0292 15.06384502216290
STARLINK-3696           
1 51965U 22025K   26037.61208319 -.00002070  00000+0 -12014-3 0  9996
2 51965  53.0549 175.3578 0001377  88.7659 271.3487 15.06392270216164
STARLINK-3699           
1 51966U 22025L   26038.31471753  .00001234  00000+0  10171-3 0  9990
2 51966  53.0563 167.1879 0001195  95.1383 264.9743 15.06405387216345
STARLINK-3681           
1 51968U 22025N   26037.67675173  .00000669  00000+0  63795-4 0  9994
2 51968  53.0555 166.1519 0001237  89.9056 270.2075 15.06393690216300
STARLINK-3680           
1 51969U 22025P   26037.58464012 -.00000178  00000+0  69341-5 0  9993
2 51969  53.0568 166.8688 0001279  99.4504 260.6629 15.06389626216277
STARLINK-3677           
1 51970U 22025Q   26037.58122636 -.00000642  00000+0 -24246-4 0  9999
2 51970  53.0548 170.5546 0001232  89.7112 270.4018 15.06391353216235
STARLINK-3669           
1 51971U 22025R   26037.61407840 -.00002223  00000+0 -13036-3 0  9998
2 51971  53.0553 166.3821 0001324 139.6647 220.4441 15.06401098216290
