[{"OBJECT_NAME":"STARLINK-3598","OBJECT_ID":"2022-022AX","EPOCH":"2026-02-06T14:19:05.208384","MEAN_MOTION":15.08828999,"ECCENTRICITY":0.0001365,"INCLINATION":53.2175,"RA_OF_ASC_NODE":138.7031,"ARG_OF_PERICENTER":78.0537,"MEAN_ANOMALY":282.0608,"EPHEMERIS_TYPE":0,"CLASSIFICATION_TYPE":"U","NORAD_CAT_ID":51897,"ELEMENT_SET_NO":999,"REV_AT_EPOCH":21855,"BSTAR":-6.0844e-5,"MEAN_MOTION_DOT":-1.256e-5,"MEAN_MOTION_DDOT":0},{"OBJECT_NAME":"STARLINK-3597","OBJECT_ID":"2022-022AY","EPOCH":"2026-02-07T06:07:39.138240","MEAN_MOTION":15.08835921,"ECCENTRICITY":0.00012122,"INCLINATION":53.2159,"RA_OF_ASC_NODE":135.745,"ARG_OF_PERICENTER":83.0442,"MEAN_ANOMALY":277.0688,"EPHEMERIS_TYPE":0,"CLASSIFICATION_TYPE":"U","NORAD_CAT_ID":51898,"ELEMENT_SET_NO":999,"REV_AT_EPOCH":21870,"BSTAR":0.00014366834,"MEAN_MOTION_DOT":1.999e-5,"MEAN_MOTION_DDOT":0},{"OBJECT_NAME":"STARLINK-3700","OBJECT_ID":"2022-025A","EPOCH":"2026-02-07T07:11:33.242784","MEAN_MOTION":15.29356519,"ECCENTRICITY":0.00014655,"INCLINATION":53.1596,"RA_OF_ASC_NODE":154.4224,"ARG_OF_PERICENTER":68.549,"MEAN_ANOMALY":291.5666,"EPHEMERIS_TYPE":0,"CLASSIFICATION_TYPE":"U","NORAD_CAT_ID":51956,"ELEMENT_SET_NO":999,"REV_AT_EPOCH":21652,"BSTAR":4.6089301e-5,"MEAN_MOTION_DOT":9.74e-6,"MEAN_MOTION_DDOT":0},{"OBJECT_NAME":"STARLINK-3694","OBJECT_ID":"2022-025B","EPOCH":"2026-02-06T14:52:02.202816","MEAN_MOTION":15.06389605,"ECCENTRICITY":0.0001292,"INCLINATION":53.0561,"RA_OF_ASC_NODE":175.3509,"ARG_OF_PERICENTER":95.9259,"MEAN_ANOMALY":264.1878,"EPHEMERIS_TYPE":0,"CLASSIFICATION_TYPE":"U","NORAD_CAT_ID":51957,"ELEMENT_SET_NO":999,"REV_AT_EPOCH":21616,"BSTAR":-2.3967e-5,"MEAN_MOTION_DOT":-6.38e-6,"MEAN_MOTION_DDOT":0},{"OBJECT_NAME":"STARLINK-3692","OBJECT_ID":"2022-025C","EPOCH":"2026-02-06T14:32:36.301344","MEAN_MOTION":15.30193795,"ECCENTRICITY":9.55e-5,"INCLINATION":53.1624,"RA_OF_ASC_NODE":157.9215,"ARG_OF_PERICENTER":79.8549,"MEAN_ANOMALY":280.2559,"EPHEMERIS_TYPE":0,"CLASSIFICATION_TYPE":"U","NORAD_CAT_ID":51958,"ELEMENT_SET_NO":999,"REV_AT_EPOCH":21641,"BSTAR":3.7441e-5,"MEAN_MOTION_DOT":7.5e-6,"MEAN_MOTION_DDOT":0},{"OBJECT_NAME":"STARLINK-3704","OBJECT_ID":"2022-025D","EPOCH":"2026-02-07T00:30:35.959392","MEAN_MOTION":15.06376079,"ECCENTRICITY":0.00026196,"INCLINATION":53.056,"RA_OF_ASC_NODE":173.521,"ARG_OF_PERICENTER":50.8472,"MEAN_ANOMALY":309.2749,"EPHEMERIS_TYPE":0,"CLASSIFICATION_TYPE":"U","NORAD_CAT_ID":51959,"ELEMENT_SET_NO":999,"REV_AT_EPOCH":21622,"BSTAR":-0.00010340083,"MEAN_MOTION_DOT":-1.821e-5,"MEAN_MOTION_DDOT":0},{"OBJECT_NAME":"STARLINK-3691","OBJECT_ID":"2022-025E","EPOCH":"2026-02-06T16:22:15.957696","MEAN_MOTION":15.0638769,"ECCENTRICITY":0.00012725,"INCLINATION":53.0561,"RA_OF_ASC_NODE":175.0486,"ARG_OF_PERICENTER":93.7373,"MEAN_ANOMALY":266.3762,"EPHEMERIS_TYPE":0,"CLASSIFICATION_TYPE":"U","NORAD_CAT_ID":51960,"ELEMENT_SET_NO":999,"REV_AT_EPOCH":21617,"BSTAR":3.6650373e-5,"MEAN_MOTION_DOT":2.64e-6,"MEAN_MOTION_DDOT":0},{"OBJECT_NAME":"STARLINK-3697","OBJECT_ID":"2022-025G","EPOCH":"2026-02-07T07:31:18.639552","MEAN_MOTION":15.06407177,"ECCENTRICITY":0.00018548,"INCLINATION":53.0555,"RA_OF_ASC_NODE":162.79,"ARG_OF_PERICENTER":110.9657,"MEAN_ANOMALY":249.1531,"EPHEMERIS_TYPE":0,"CLASSIFICATION_TYPE":"U","NORAD_CAT_ID":51962,"ELEMENT_SET_NO":999,"REV_AT_EPOCH":21640,"BSTAR":-0.00012355309,"MEAN_MOTION_DOT":-2.122e-5,"MEAN_MOTION_DDOT":0},{"OBJECT_NAME":"STARLINK-3675","OBJECT_ID":"2022-025H","EPOCH":"2026-02-06T14:28:04.519776","MEAN_MOTION":15.30193144,"ECCENTRICITY":0.0001439,"INCLINATION":53.1631,"RA_OF_ASC_NODE":157.9519,"ARG_OF_PERICENTER":82.3366,"MEAN_ANOMALY":277.7798,"EPHEMERIS_TYPE":0,"CLASSIFICATION_TYPE":"U","NORAD_CAT_ID":51963,"ELEMENT_SET_NO":999,"REV_AT_EPOCH":21641,"BSTAR":4.3376e-5,"MEAN_MOTION_DOT":9.25e-6,"MEAN_MOTION_DDOT":0},{"OBJECT_NAME":"STARLINK-3690","OBJECT_ID":"2022-025J","EPOCH":"2026-02-06T15:05:31.337952","MEAN_MOTION":15.06384502,"ECCENTRICITY":9.82e-5,"INCLINATION":53.055,"RA_OF_ASC_NODE":166.4513,"ARG_OF_PERICENTER":99.0808,"MEAN_ANOMALY":261.0292,"EPHEMERIS_TYPE":0,"CLASSIFICATION_TYPE":"U","NORAD_CAT_ID":51964,"ELEMENT_SET_NO":999,"REV_AT_EPOCH":21629,"BSTAR":-0.00034751,"MEAN_MOTION_DOT":-5.451e-5,"MEAN_MOTION_DDOT":0},{"OBJECT_NAME":"STARLINK-3696","OBJECT_ID":"2022-025K","EPOCH":"2026-02-06T14:41:23.987616","MEAN_MOTION":15.0639227,"ECCENTRICITY":0.0001377,"INCLINATION":53.0549,"RA_OF_ASC_NODE":175.3578,"ARG_OF_PERICENTER":88.7659,"MEAN_ANOMALY":271.3487,"EPHEMERIS_TYPE":0,"CLASSIFICATION_TYPE":"U","NORAD_CAT_ID":51965,"ELEMENT_SET_NO":999,"REV_AT_EPOCH":21616,"BSTAR":-0.00012014,"MEAN_MOTION_DOT":-2.07e-5,"MEAN_MOTION_DDOT":0},{"OBJECT_NAME":"STARLINK-3699","OBJECT_ID":"2022-025L","EPOCH":"2026-02-07T07:33:11.594592","MEAN_MOTION":15.06405387,"ECCENTRICITY":0.00011952,"INCLINATION":53.0563,"RA_OF_ASC_NODE":167.1879,"ARG_OF_PERICENTER":95.1383,"MEAN_ANOMALY":264.9743,"EPHEMERIS_TYPE":0,"CLASSIFICATION_TYPE":"U","NORAD_CAT_ID":51966,"ELEMENT_SET_NO":999,"REV_AT_EPOCH":21634,"BSTAR":0.00010170885,"MEAN_MOTION_DOT":1.234e-5,"MEAN_MOTION_DDOT":0},{"OBJECT_NAME":"STARLINK-3681","OBJECT_ID":"2022-025N","EPOCH":"2026-02-06T16:14:31.349472","MEAN_MOTION":15.0639369,"ECCENTRICITY":0.00012377,"INCLINATION":53.0555,"RA_OF_ASC_NODE":166.1519,"ARG_OF_PERICENTER":89.9056,"MEAN_ANOMALY":270.2075,"EPHEMERIS_TYPE":0,"CLASSIFICATION_TYPE":"U","NORAD_CAT_ID":51968,"ELEMENT_SET_NO":999,"REV_AT_EPOCH":21630,"BSTAR":6.3794702e-5,"MEAN_MOTION_DOT":6.69e-6,"MEAN_MOTION_DDOT":0},{"OBJECT_NAME":"STARLINK-3680","OBJECT_ID":"2022-025P","EPOCH":"2026-02-06T14:01:52.906368","MEAN_MOTION":15.06389626,"ECCENTRICITY":0.0001279,"INCLINATION":53.0568,"RA_OF_ASC_NODE":166.8688,"ARG_OF_PERICENTER":99.4504,"MEAN_ANOMALY":260.6629,"EPHEMERIS_TYPE":0,"CLASSIFICATION_TYPE":"U","NORAD_CAT_ID":51969,"ELEMENT_SET_NO":999,"REV_AT_EPOCH":21627,"BSTAR":6.9341e-6,"MEAN_MOTION_DOT":-1.78e-6,"MEAN_MOTION_DDOT":0},{"OBJECT_NAME":"STARLINK-3677","OBJECT_ID":"2022-025Q","EPOCH":"2026-02-06T13:56:57.957504","MEAN_MOTION":15.06391353,"ECCENTRICITY":0.0001232,"INCLINATION":53.0548,"RA_OF_ASC_NODE":170.5546,"ARG_OF_PERICENTER":89.7112,"MEAN_ANOMALY":270.4018,"EPHEMERIS_TYPE":0,"CLASSIFICATION_TYPE":"U","NORAD_CAT_ID":51970,"ELEMENT_SET_NO":999,"REV_AT_EPOCH":21623,"BSTAR":-2.4246e-5,"MEAN_MOTION_DOT":-6.42e-6,"MEAN_MOTION_DDOT":0},{"OBJECT_NAME":"STARLINK-3669","OBJECT_ID":"2022-025R","EPOCH":"2026-02-06T14:44:16.373760","MEAN_MOTION":15.06401098,"ECCENTRICITY":0.0001324,"INCLINATION":53.0553,"RA_OF_ASC_NODE":166.3821,"ARG_OF_PERICENTER":139.6647,"MEAN_ANOMALY":220.4441,"EPHEMERIS_TYPE":0,"CLASSIFICATION_TYPE":"U","NORAD_CAT_ID":51971,"ELEMENT_SET_NO":999,"REV_AT_EPOCH":21629,"BSTAR":-0.00013036,"MEAN_MOTION_DOT":-2.223e-5,"MEAN_MOTION_DDOT":0}]
